{
  "norad_id": 59137,
  "name": "VSP RF B1",
  "history": [
    {
      "epoch": "2026-03-28T21:14:59.612352Z",
      "apogee_km": 493.18107001691715,
      "perigee_km": 476.95933074224376,
      "latitude_deg": -8.748348825015423e-07,
      "longitude_deg": 78.80167732728114,
      "height_km": 495.4253135194754,
      "semi_major_axis_km": 6863.20720037958,
      "eccentricity": 0.00118179,
      "inclination_deg": 97.5475,
      "raan_deg": 223.8495,
      "arg_perigee_deg": 153.6411,
      "mean_anomaly_deg": 206.5431,
      "mean_motion_rev_day": 15.26905278
    },
    {
      "epoch": "2026-03-29T03:32:28.135968Z",
      "apogee_km": 493.1877445817945,
      "perigee_km": 476.93020595557755,
      "latitude_deg": -4.628157235657144e-06,
      "longitude_deg": -15.560443273887483,
      "height_km": 495.3731394284645,
      "semi_major_axis_km": 6863.195975268685,
      "eccentricity": 0.0011844,
      "inclination_deg": 97.5476,
      "raan_deg": 224.1146,
      "arg_perigee_deg": 152.7564,
      "mean_anomaly_deg": 207.4298,
      "mean_motion_rev_day": 15.26909024
    }
  ]
}